{
  "norad_id": 24876,
  "name": "NAVSTAR 43 (USA 132)",
  "history": [
    {
      "epoch": "2026-03-28T10:21:38.212128Z",
      "apogee_km": 20444.395899990977,
      "perigee_km": 19919.978237448548,
      "latitude_deg": -3.556412021464939e-05,
      "longitude_deg": 120.46964050901352,
      "height_km": 20034.741217756306,
      "semi_major_axis_km": 26560.32406871976,
      "eccentricity": 0.0098722,
      "inclination_deg": 55.95,
      "raan_deg": 101.7308,
      "arg_perigee_deg": 56.1329,
      "mean_anomaly_deg": 304.8527,
      "mean_motion_rev_day": 2.00563873
    }
  ]
}